SAUDISAT 1C (SO-50)     
1 27607U 02058C   26167.61583827  .00000824  00000+0  11462-3 0  9999
2 27607  64.5510 130.7531 0075274 262.5800  96.6748 14.83045885264371
SAUDISAT 2              
1 28371U 04025F   26167.54813435  .00000196  00000+0  54949-4 0  9997
2 28371  98.5508 167.5135 0023615 300.3178  59.5683 14.56683601165654
SAUDISAT 3              
1 31118U 07012B   26167.57866605  .00000210  00000+0  42122-4 0  9996
2 31118  98.1456 117.9789 0013600 225.8814 134.1274 14.71425307 27657
PISAT                   
1 41784U 16059B   26167.53097132  .00000692  00000+0  12550-3 0  9999
2 41784  97.8179 168.0120 0028324 204.9217 155.0623 14.68982430519641
FLYING LAPTOP           
1 42831U 17042G   26167.65226267  .00003441  00000+0  27201-3 0  9996
2 42831  97.4681 323.2052 0019558 123.3549 236.9551 15.01143904486374
SALSAT                  
1 46495U 20068K   26167.55682940  .00006231  00000+0  21872-3 0  9999
2 46495  97.8845 170.5831 0008036 310.6288  49.4251 15.29791688315269
