OBJECT_NAME,OBJECT_ID,EPOCH,MEAN_MOTION,ECCENTRICITY,INCLINATION,RA_OF_ASC_NODE,ARG_OF_PERICENTER,MEAN_ANOMALY,EPHEMERIS_TYPE,CLASSIFICATION_TYPE,NORAD_CAT_ID,ELEMENT_SET_NO,REV_AT_EPOCH,BSTAR,MEAN_MOTION_DOT,MEAN_MOTION_DDOT
SAUDISAT 1C (SO-50),2002-058C,2026-06-16T14:46:48.426528,14.83045885,.00752748,64.5510,130.7531,262.5800,96.6748,0,U,27607,999,26437,.11462112E-3,.824E-5,0
SAUDISAT 2,2004-025F,2026-06-16T13:09:18.807840,14.56683601,.0023615,98.5508,167.5135,300.3178,59.5683,0,U,28371,999,16565,.54948704E-4,.196E-5,0
SAUDISAT 3,2007-012B,2026-06-16T13:53:16.746720,14.71425307,.00136009,98.1456,117.9789,225.8814,134.1274,0,U,31118,999,2765,.42121606E-4,.21E-5,0
PISAT,2016-059B,2026-06-16T12:44:35.922048,14.68982430,.00283245,97.8179,168.0120,204.9217,155.0623,0,U,41784,999,51964,.12549786E-3,.692E-5,0
FLYING LAPTOP,2017-042G,2026-06-16T15:39:15.494688,15.01143904,.00195587,97.4681,323.2052,123.3549,236.9551,0,U,42831,999,48637,.27200747E-3,.3441E-4,0
SALSAT,2020-068K,2026-06-16T13:21:50.060160,15.29791688,.00080362,97.8845,170.5831,310.6288,49.4251,0,U,46495,999,31526,.21871649E-3,.6231E-4,0
